O3B FM5                 
1 39188U 13031A   26095.67972023 -.00000025  00000+0  00000+0 0  9991
2 39188   0.1019   5.5448 0003225 359.3404 355.1169  5.00116550233414
O3B FM4                 
1 39189U 13031B   26086.40408870 -.00000028  00000+0  00000+0 0  9990
2 39189   0.0535 345.5776 0005068  27.4764 346.9547  5.00115128232953
O3B FM2                 
1 39190U 13031C   26094.86513521 -.00000026  00000+0  00000+0 0  9999
2 39190   0.0514 339.0477 0002770  33.0431 347.9145  5.00116057233441
O3B PFM                 
1 39191U 13031D   26095.07914012 -.00000025  00000+0  00000+0 0  9993
2 39191   0.0701   3.8026 0005400  16.8934 339.3246  5.00116068233018
O3B FM3                 
1 40079U 14038A   26095.74545174 -.00000025  00000+0  00000+0 0  9991
2 40079   0.0526 354.7098 0001054  87.5110 277.7900  5.00115655209420
O3B FM7                 
1 40080U 14038B   26095.69154722 -.00000025  00000+0  00000+0 0  9992
2 40080   0.0566 348.1143 0004257  12.2324 359.6524  5.00115674214254
O3B FM6                 
1 40081U 14038C   26095.51865520 -.00000025  00000+0  00000+0 0  9999
2 40081   0.0536 351.8729 0002639  21.9506 346.1826  5.00115755214182
O3B FM8                 
1 40082U 14038D   26095.77184487 -.00000025  00000+0  00000+0 0  9994
2 40082   0.0542 350.8846 0002680  26.7326 342.3910  5.00116051214315
O3B FM10                
1 40348U 14083A   26095.59906363 -.00000025  00000+0  00000+0 0  9994
2 40348   0.0432 335.9482 0002690  37.2869 346.7708  5.00115388206268
O3B FM11                
1 40349U 14083B   26095.41186919 -.00000025  00000+0  00000+0 0  9993
2 40349   0.0580   0.0142 0003011   1.4390 358.5465  5.00115628206275
O3B FM12                
1 40350U 14083C   26095.63883298 -.00000025  00000+0  00000+0 0  9993
2 40350   0.0571 359.4878 0002584  11.7125 348.8043  5.00115976206289
O3B FM9                 
1 40351U 14083D   26093.26697712 -.00000026  00000+0  00000+0 0  9996
2 40351   0.0591   0.1634 0002706  11.5018 348.3391  5.00115977206324
LEO 1 (LEO VANTAGE 1)   
1 43113U 18004C   26095.70891926  .00004727  00000+0  33121-3 0  9991
2 43113  99.2453   4.5458 0350511 302.0022  54.7560 14.67474068426855
O3B FM15                
1 43231U 18024A   26092.13440900 -.00000027  00000+0  00000+0 0  9996
2 43231   0.0502   3.1354 0002633   6.1622 350.7046  5.00115731147223
O3B FM16                
1 43232U 18024B   26095.78479951 -.00000025  00000+0  00000+0 0  9997
2 43232   0.0473   6.6042 0002696   4.8244 348.5765  5.00116044147318
O3B FM14                
1 43233U 18024C   26095.42578920 -.00000025  00000+0  00000+0 0  9995
2 43233   0.0458   6.2308 0002850   9.3737 344.4031  5.00115741147316
O3B FM13                
1 43234U 18024D   26084.69755415 -.00000024  00000+0  00000+0 0  9998
2 43234   0.0470 335.8508 0003967 348.6026  35.5167  5.00115556146887
