[{"OBJECT_NAME":"O3B FM5","OBJECT_ID":"2013-031A","EPOCH":"2026-04-05T16:18:47.827872","MEAN_MOTION":5.0011655,"ECCENTRICITY":0.0003225,"INCLINATION":0.1019,"RA_OF_ASC_NODE":5.5448,"ARG_OF_PERICENTER":359.3404,"MEAN_ANOMALY":355.1169,"EPHEMERIS_TYPE":0,"CLASSIFICATION_TYPE":"U","NORAD_CAT_ID":39188,"ELEMENT_SET_NO":999,"REV_AT_EPOCH":23341,"BSTAR":0,"MEAN_MOTION_DOT":-2.5e-7,"MEAN_MOTION_DDOT":0},{"OBJECT_NAME":"O3B FM4","OBJECT_ID":"2013-031B","EPOCH":"2026-03-27T09:41:53.263680","MEAN_MOTION":5.00115128,"ECCENTRICITY":0.00050688,"INCLINATION":0.0535,"RA_OF_ASC_NODE":345.5776,"ARG_OF_PERICENTER":27.4764,"MEAN_ANOMALY":346.9547,"EPHEMERIS_TYPE":0,"CLASSIFICATION_TYPE":"U","NORAD_CAT_ID":39189,"ELEMENT_SET_NO":999,"REV_AT_EPOCH":23295,"BSTAR":0,"MEAN_MOTION_DOT":-2.8e-7,"MEAN_MOTION_DDOT":0},{"OBJECT_NAME":"O3B FM2","OBJECT_ID":"2013-031C","EPOCH":"2026-04-04T20:45:47.682144","MEAN_MOTION":5.00116057,"ECCENTRICITY":0.00027707,"INCLINATION":0.0514,"RA_OF_ASC_NODE":339.0477,"ARG_OF_PERICENTER":33.0431,"MEAN_ANOMALY":347.9145,"EPHEMERIS_TYPE":0,"CLASSIFICATION_TYPE":"U","NORAD_CAT_ID":39190,"ELEMENT_SET_NO":999,"REV_AT_EPOCH":23344,"BSTAR":0,"MEAN_MOTION_DOT":-2.6e-7,"MEAN_MOTION_DDOT":0},{"OBJECT_NAME":"O3B PFM","OBJECT_ID":"2013-031D","EPOCH":"2026-04-05T01:53:57.706368","MEAN_MOTION":5.00116068,"ECCENTRICITY":0.00054,"INCLINATION":0.0701,"RA_OF_ASC_NODE":3.8026,"ARG_OF_PERICENTER":16.8934,"MEAN_ANOMALY":339.3246,"EPHEMERIS_TYPE":0,"CLASSIFICATION_TYPE":"U","NORAD_CAT_ID":39191,"ELEMENT_SET_NO":999,"REV_AT_EPOCH":23301,"BSTAR":0,"MEAN_MOTION_DOT":-2.5e-7,"MEAN_MOTION_DDOT":0},{"OBJECT_NAME":"O3B FM3","OBJECT_ID":"2014-038A","EPOCH":"2026-04-05T17:53:27.030336","MEAN_MOTION":5.00115655,"ECCENTRICITY":0.0001054,"INCLINATION":0.0526,"RA_OF_ASC_NODE":354.7098,"ARG_OF_PERICENTER":87.511,"MEAN_ANOMALY":277.79,"EPHEMERIS_TYPE":0,"CLASSIFICATION_TYPE":"U","NORAD_CAT_ID":40079,"ELEMENT_SET_NO":999,"REV_AT_EPOCH":20942,"BSTAR":0,"MEAN_MOTION_DOT":-2.5e-7,"MEAN_MOTION_DDOT":0},{"OBJECT_NAME":"O3B FM7","OBJECT_ID":"2014-038B","EPOCH":"2026-04-05T16:35:49.679808","MEAN_MOTION":5.00115674,"ECCENTRICITY":0.0004257,"INCLINATION":0.0566,"RA_OF_ASC_NODE":348.1143,"ARG_OF_PERICENTER":12.2324,"MEAN_ANOMALY":359.6524,"EPHEMERIS_TYPE":0,"CLASSIFICATION_TYPE":"U","NORAD_CAT_ID":40080,"ELEMENT_SET_NO":999,"REV_AT_EPOCH":21425,"BSTAR":0,"MEAN_MOTION_DOT":-2.5e-7,"MEAN_MOTION_DDOT":0},{"OBJECT_NAME":"O3B FM6","OBJECT_ID":"2014-038C","EPOCH":"2026-04-05T12:26:51.809280","MEAN_MOTION":5.00115755,"ECCENTRICITY":0.0002639,"INCLINATION":0.0536,"RA_OF_ASC_NODE":351.8729,"ARG_OF_PERICENTER":21.9506,"MEAN_ANOMALY":346.1826,"EPHEMERIS_TYPE":0,"CLASSIFICATION_TYPE":"U","NORAD_CAT_ID":40081,"ELEMENT_SET_NO":999,"REV_AT_EPOCH":21418,"BSTAR":0,"MEAN_MOTION_DOT":-2.5e-7,"MEAN_MOTION_DDOT":0},{"OBJECT_NAME":"O3B FM8","OBJECT_ID":"2014-038D","EPOCH":"2026-04-05T18:31:27.396768","MEAN_MOTION":5.00116051,"ECCENTRICITY":0.000268,"INCLINATION":0.0542,"RA_OF_ASC_NODE":350.8846,"ARG_OF_PERICENTER":26.7326,"MEAN_ANOMALY":342.391,"EPHEMERIS_TYPE":0,"CLASSIFICATION_TYPE":"U","NORAD_CAT_ID":40082,"ELEMENT_SET_NO":999,"REV_AT_EPOCH":21431,"BSTAR":0,"MEAN_MOTION_DOT":-2.5e-7,"MEAN_MOTION_DDOT":0},{"OBJECT_NAME":"O3B FM10","OBJECT_ID":"2014-083A","EPOCH":"2026-04-05T14:22:39.097632","MEAN_MOTION":5.00115388,"ECCENTRICITY":0.000269,"INCLINATION":0.0432,"RA_OF_ASC_NODE":335.9482,"ARG_OF_PERICENTER":37.2869,"MEAN_ANOMALY":346.7708,"EPHEMERIS_TYPE":0,"CLASSIFICATION_TYPE":"U","NORAD_CAT_ID":40348,"ELEMENT_SET_NO":999,"REV_AT_EPOCH":20626,"BSTAR":0,"MEAN_MOTION_DOT":-2.5e-7,"MEAN_MOTION_DDOT":0},{"OBJECT_NAME":"O3B FM11","OBJECT_ID":"2014-083B","EPOCH":"2026-04-05T09:53:05.498016","MEAN_MOTION":5.00115628,"ECCENTRICITY":0.0003011,"INCLINATION":0.058,"RA_OF_ASC_NODE":0.0142,"ARG_OF_PERICENTER":1.439,"MEAN_ANOMALY":358.5465,"EPHEMERIS_TYPE":0,"CLASSIFICATION_TYPE":"U","NORAD_CAT_ID":40349,"ELEMENT_SET_NO":999,"REV_AT_EPOCH":20627,"BSTAR":0,"MEAN_MOTION_DOT":-2.5e-7,"MEAN_MOTION_DDOT":0},{"OBJECT_NAME":"O3B FM12","OBJECT_ID":"2014-083C","EPOCH":"2026-04-05T15:19:55.169472","MEAN_MOTION":5.00115976,"ECCENTRICITY":0.0002584,"INCLINATION":0.0571,"RA_OF_ASC_NODE":359.4878,"ARG_OF_PERICENTER":11.7125,"MEAN_ANOMALY":348.8043,"EPHEMERIS_TYPE":0,"CLASSIFICATION_TYPE":"U","NORAD_CAT_ID":40350,"ELEMENT_SET_NO":999,"REV_AT_EPOCH":20628,"BSTAR":0,"MEAN_MOTION_DOT":-2.5e-7,"MEAN_MOTION_DDOT":0},{"OBJECT_NAME":"O3B FM9","OBJECT_ID":"2014-083D","EPOCH":"2026-04-03T06:24:26.823168","MEAN_MOTION":5.00115977,"ECCENTRICITY":0.00027068,"INCLINATION":0.0591,"RA_OF_ASC_NODE":0.1634,"ARG_OF_PERICENTER":11.5018,"MEAN_ANOMALY":348.3391,"EPHEMERIS_TYPE":0,"CLASSIFICATION_TYPE":"U","NORAD_CAT_ID":40351,"ELEMENT_SET_NO":999,"REV_AT_EPOCH":20632,"BSTAR":0,"MEAN_MOTION_DOT":-2.6e-7,"MEAN_MOTION_DDOT":0},{"OBJECT_NAME":"LEO 1 (LEO VANTAGE 1)","OBJECT_ID":"2018-004C","EPOCH":"2026-04-05T17:00:50.624064","MEAN_MOTION":14.67474068,"ECCENTRICITY":0.0350511,"INCLINATION":99.2453,"RA_OF_ASC_NODE":4.5458,"ARG_OF_PERICENTER":302.0022,"MEAN_ANOMALY":54.756,"EPHEMERIS_TYPE":0,"CLASSIFICATION_TYPE":"U","NORAD_CAT_ID":43113,"ELEMENT_SET_NO":999,"REV_AT_EPOCH":42685,"BSTAR":0.00033121,"MEAN_MOTION_DOT":4.727e-5,"MEAN_MOTION_DDOT":0},{"OBJECT_NAME":"O3B FM15","OBJECT_ID":"2018-024A","EPOCH":"2026-04-02T03:13:32.937600","MEAN_MOTION":5.00115731,"ECCENTRICITY":0.0002633,"INCLINATION":0.0502,"RA_OF_ASC_NODE":3.1354,"ARG_OF_PERICENTER":6.1622,"MEAN_ANOMALY":350.7046,"EPHEMERIS_TYPE":0,"CLASSIFICATION_TYPE":"U","NORAD_CAT_ID":43231,"ELEMENT_SET_NO":999,"REV_AT_EPOCH":14722,"BSTAR":0,"MEAN_MOTION_DOT":-2.7e-7,"MEAN_MOTION_DDOT":0},{"OBJECT_NAME":"O3B FM16","OBJECT_ID":"2018-024B","EPOCH":"2026-04-05T18:50:06.677664","MEAN_MOTION":5.00116044,"ECCENTRICITY":0.0002696,"INCLINATION":0.0473,"RA_OF_ASC_NODE":6.6042,"ARG_OF_PERICENTER":4.8244,"MEAN_ANOMALY":348.5765,"EPHEMERIS_TYPE":0,"CLASSIFICATION_TYPE":"U","NORAD_CAT_ID":43232,"ELEMENT_SET_NO":999,"REV_AT_EPOCH":14731,"BSTAR":0,"MEAN_MOTION_DOT":-2.5e-7,"MEAN_MOTION_DDOT":0},{"OBJECT_NAME":"O3B FM14","OBJECT_ID":"2018-024C","EPOCH":"2026-04-05T10:13:08.186880","MEAN_MOTION":5.00115741,"ECCENTRICITY":0.000285,"INCLINATION":0.0458,"RA_OF_ASC_NODE":6.2308,"ARG_OF_PERICENTER":9.3737,"MEAN_ANOMALY":344.4031,"EPHEMERIS_TYPE":0,"CLASSIFICATION_TYPE":"U","NORAD_CAT_ID":43233,"ELEMENT_SET_NO":999,"REV_AT_EPOCH":14731,"BSTAR":0,"MEAN_MOTION_DOT":-2.5e-7,"MEAN_MOTION_DDOT":0},{"OBJECT_NAME":"O3B FM13","OBJECT_ID":"2018-024D","EPOCH":"2026-03-25T16:44:28.678560","MEAN_MOTION":5.00115556,"ECCENTRICITY":0.00039678,"INCLINATION":0.047,"RA_OF_ASC_NODE":335.8508,"ARG_OF_PERICENTER":348.6026,"MEAN_ANOMALY":35.5167,"EPHEMERIS_TYPE":0,"CLASSIFICATION_TYPE":"U","NORAD_CAT_ID":43234,"ELEMENT_SET_NO":999,"REV_AT_EPOCH":14688,"BSTAR":0,"MEAN_MOTION_DOT":-2.4e-7,"MEAN_MOTION_DDOT":0}]
